STARLINK-36623          
1 67644U 26020AD  26039.25002315 -.01602958  00000+0 -63281-2 0  9999
2 67644  42.9992 321.0554 0001578 265.9920 328.0653 15.88524018  2650
STARLINK-36619          
1 67645U 26020AE  26039.25002315 -.01602031  00000+0 -63814-2 0  9994
2 67645  42.9992 321.0641 0001650 265.5570 325.1073 15.88344739  2650
ALSAT-3B                
1 67646U 26021A   26039.29043630  .00008018  00000+0  33830-3 0  9993
2 67646  97.4721 113.7527 0011567 234.9178 125.0975 15.23499414  1249
CZ-2C R/B               
1 67647U 26021B   26039.29262036  .00016392  00000+0  49675-3 0  9995
2 67647  97.6561 114.1684 0154008 113.3223 248.4304 15.23270551  1225
STARLINK-36719          
1 67648U 26022A   26039.25002315 -.01647800  82470-3 -33252-2 0  9990
2 67648  97.2830  71.6225 0001044  67.5275 325.1156 15.99752037  2166
STARLINK-36342          
1 67649U 26022B   26039.25002315 -.01644591  82285-3 -32958-2 0  9991
2 67649  97.2829  71.6229 0001024  71.6440 322.4757 15.99875027  2169
STARLINK-36703          
1 67650U 26022C   26039.25002315 -.01635699  81603-3 -32486-2 0  9991
2 67650  97.2828  71.6238 0001082  66.2844 329.6296 16.00033019  2169
STARLINK-36696          
1 67651U 26022D   26039.25002315 -.01628049  81047-3 -32029-2 0  9998
2 67651  97.2826  71.6245 0001094  66.7771 331.0065 16.00199741  2169
STARLINK-36699          
1 67652U 26022E   26039.25002315 -.01624660  80863-3 -31705-2 0  9999
2 67652  97.2827  71.6252 0001049  67.9848 331.4370 16.00341826  2163
STARLINK-36694          
1 67653U 26022F   26039.25002315 -.01617319  80353-3 -31229-2 0  9998
2 67653  97.2827  71.6262 0000984  83.5531 317.8907 16.00527754  2165
STARLINK-36620          
1 67654U 26022G   26039.25002315 -.01611259  79939-3 -30828-2 0  9998
2 67654  97.2824  71.6267 0001049  63.3596 339.8792 16.00687623  2166
STARLINK-36720          
1 67655U 26022H   26039.25002315 -.01605434  79575-3 -30384-2 0  9990
2 67655  97.2825  71.6277 0000951  84.3882 320.8909 16.00878325  2162
