CCSDS_OMM_VERS = 2.0
CREATION_DATE  = 
ORIGINATOR     = 

OBJECT_NAME    = STARLINK-36623
OBJECT_ID      = 2026-020AD
CENTER_NAME    = EARTH
REF_FRAME      = TEME
TIME_SYSTEM    = UTC
MEAN_ELEMENT_THEORY = SGP/SGP4

EPOCH          = 2026-02-08T06:00:02.000160
MEAN_MOTION    = 15.88524018
ECCENTRICITY   = .00015789
INCLINATION    = 42.9992
RA_OF_ASC_NODE = 321.0554
ARG_OF_PERICENTER = 265.9920
MEAN_ANOMALY   = 328.0653

EPHEMERIS_TYPE = 0
CLASSIFICATION_TYPE = U
NORAD_CAT_ID   = 67644
ELEMENT_SET_NO = 999
REV_AT_EPOCH   = 265
BSTAR          = -.63281006E-2
MEAN_MOTION_DOT = -.1602958E-1
MEAN_MOTION_DDOT = 0

CCSDS_OMM_VERS = 2.0
CREATION_DATE  = 
ORIGINATOR     = 

OBJECT_NAME    = STARLINK-36619
OBJECT_ID      = 2026-020AE
CENTER_NAME    = EARTH
REF_FRAME      = TEME
TIME_SYSTEM    = UTC
MEAN_ELEMENT_THEORY = SGP/SGP4

EPOCH          = 2026-02-08T06:00:02.000160
MEAN_MOTION    = 15.88344739
ECCENTRICITY   = .00016507
INCLINATION    = 42.9992
RA_OF_ASC_NODE = 321.0641
ARG_OF_PERICENTER = 265.5570
MEAN_ANOMALY   = 325.1073

EPHEMERIS_TYPE = 0
CLASSIFICATION_TYPE = U
NORAD_CAT_ID   = 67645
ELEMENT_SET_NO = 999
REV_AT_EPOCH   = 265
BSTAR          = -.63814105E-2
MEAN_MOTION_DOT = -.1602031E-1
MEAN_MOTION_DDOT = 0

CCSDS_OMM_VERS = 2.0
CREATION_DATE  = 
ORIGINATOR     = 

OBJECT_NAME    = ALSAT-3B
OBJECT_ID      = 2026-021A
CENTER_NAME    = EARTH
REF_FRAME      = TEME
TIME_SYSTEM    = UTC
MEAN_ELEMENT_THEORY = SGP/SGP4

EPOCH          = 2026-02-08T06:58:13.696320
MEAN_MOTION    = 15.23499414
ECCENTRICITY   = .00115671
INCLINATION    = 97.4721
RA_OF_ASC_NODE = 113.7527
ARG_OF_PERICENTER = 234.9178
MEAN_ANOMALY   = 125.0975

EPHEMERIS_TYPE = 0
CLASSIFICATION_TYPE = U
NORAD_CAT_ID   = 67646
ELEMENT_SET_NO = 999
REV_AT_EPOCH   = 124
BSTAR          = .33830367E-3
MEAN_MOTION_DOT = .8018E-4
MEAN_MOTION_DDOT = 0

CCSDS_OMM_VERS = 2.0
CREATION_DATE  = 
ORIGINATOR     = 

OBJECT_NAME    = CZ-2C R/B
OBJECT_ID      = 2026-021B
CENTER_NAME    = EARTH
REF_FRAME      = TEME
TIME_SYSTEM    = UTC
MEAN_ELEMENT_THEORY = SGP/SGP4

EPOCH          = 2026-02-08T07:01:22.399104
MEAN_MOTION    = 15.23270551
ECCENTRICITY   = .01540082
INCLINATION    = 97.6561
RA_OF_ASC_NODE = 114.1684
ARG_OF_PERICENTER = 113.3223
MEAN_ANOMALY   = 248.4304

EPHEMERIS_TYPE = 0
CLASSIFICATION_TYPE = U
NORAD_CAT_ID   = 67647
ELEMENT_SET_NO = 999
REV_AT_EPOCH   = 122
BSTAR          = .49674695E-3
MEAN_MOTION_DOT = .16392E-3
MEAN_MOTION_DDOT = 0

CCSDS_OMM_VERS = 2.0
CREATION_DATE  = 
ORIGINATOR     = 

OBJECT_NAME    = STARLINK-36719
OBJECT_ID      = 2026-022A
CENTER_NAME    = EARTH
REF_FRAME      = TEME
TIME_SYSTEM    = UTC
MEAN_ELEMENT_THEORY = SGP/SGP4

EPOCH          = 2026-02-08T06:00:02.000160
MEAN_MOTION    = 15.99752037
ECCENTRICITY   = .00010449
INCLINATION    = 97.2830
RA_OF_ASC_NODE = 71.6225
ARG_OF_PERICENTER = 67.5275
MEAN_ANOMALY   = 325.1156

EPHEMERIS_TYPE = 0
CLASSIFICATION_TYPE = U
NORAD_CAT_ID   = 67648
ELEMENT_SET_NO = 999
REV_AT_EPOCH   = 216
BSTAR          = -.33252234E-2
MEAN_MOTION_DOT = -.16478E-1
MEAN_MOTION_DDOT = .82470235E-3

CCSDS_OMM_VERS = 2.0
CREATION_DATE  = 
ORIGINATOR     = 

OBJECT_NAME    = STARLINK-36342
OBJECT_ID      = 2026-022B
CENTER_NAME    = EARTH
REF_FRAME      = TEME
TIME_SYSTEM    = UTC
MEAN_ELEMENT_THEORY = SGP/SGP4

EPOCH          = 2026-02-08T06:00:02.000160
MEAN_MOTION    = 15.99875027
ECCENTRICITY   = .00010243
INCLINATION    = 97.2829
RA_OF_ASC_NODE = 71.6229
ARG_OF_PERICENTER = 71.6440
MEAN_ANOMALY   = 322.4757

EPHEMERIS_TYPE = 0
CLASSIFICATION_TYPE = U
NORAD_CAT_ID   = 67649
ELEMENT_SET_NO = 999
REV_AT_EPOCH   = 216
BSTAR          = -.32957613E-2
MEAN_MOTION_DOT = -.1644591E-1
MEAN_MOTION_DDOT = .82285337E-3

CCSDS_OMM_VERS = 2.0
CREATION_DATE  = 
ORIGINATOR     = 

OBJECT_NAME    = STARLINK-36703
OBJECT_ID      = 2026-022C
CENTER_NAME    = EARTH
REF_FRAME      = TEME
TIME_SYSTEM    = UTC
MEAN_ELEMENT_THEORY = SGP/SGP4

EPOCH          = 2026-02-08T06:00:02.000160
MEAN_MOTION    = 16.00033019
ECCENTRICITY   = .00010825
INCLINATION    = 97.2828
RA_OF_ASC_NODE = 71.6238
ARG_OF_PERICENTER = 66.2844
MEAN_ANOMALY   = 329.6296

EPHEMERIS_TYPE = 0
CLASSIFICATION_TYPE = U
NORAD_CAT_ID   = 67650
ELEMENT_SET_NO = 999
REV_AT_EPOCH   = 216
BSTAR          = -.32486025E-2
MEAN_MOTION_DOT = -.1635699E-1
MEAN_MOTION_DDOT = .81603499E-3

CCSDS_OMM_VERS = 2.0
CREATION_DATE  = 
ORIGINATOR     = 

OBJECT_NAME    = STARLINK-36696
OBJECT_ID      = 2026-022D
CENTER_NAME    = EARTH
REF_FRAME      = TEME
TIME_SYSTEM    = UTC
MEAN_ELEMENT_THEORY = SGP/SGP4

EPOCH          = 2026-02-08T06:00:02.000160
MEAN_MOTION    = 16.00199741
ECCENTRICITY   = .00010945
INCLINATION    = 97.2826
RA_OF_ASC_NODE = 71.6245
ARG_OF_PERICENTER = 66.7771
MEAN_ANOMALY   = 331.0065

EPHEMERIS_TYPE = 0
CLASSIFICATION_TYPE = U
NORAD_CAT_ID   = 67651
ELEMENT_SET_NO = 999
REV_AT_EPOCH   = 216
BSTAR          = -.32028778E-2
MEAN_MOTION_DOT = -.1628049E-1
MEAN_MOTION_DDOT = .8104663E-3

CCSDS_OMM_VERS = 2.0
CREATION_DATE  = 
ORIGINATOR     = 

OBJECT_NAME    = STARLINK-36699
OBJECT_ID      = 2026-022E
CENTER_NAME    = EARTH
REF_FRAME      = TEME
TIME_SYSTEM    = UTC
MEAN_ELEMENT_THEORY = SGP/SGP4

EPOCH          = 2026-02-08T06:00:02.000160
MEAN_MOTION    = 16.00341826
ECCENTRICITY   = .00010498
INCLINATION    = 97.2827
RA_OF_ASC_NODE = 71.6252
ARG_OF_PERICENTER = 67.9848
MEAN_ANOMALY   = 331.4370

EPHEMERIS_TYPE = 0
CLASSIFICATION_TYPE = U
NORAD_CAT_ID   = 67652
ELEMENT_SET_NO = 999
REV_AT_EPOCH   = 216
BSTAR          = -.31705146E-2
MEAN_MOTION_DOT = -.162466E-1
MEAN_MOTION_DDOT = .80862999E-3

CCSDS_OMM_VERS = 2.0
CREATION_DATE  = 
ORIGINATOR     = 

OBJECT_NAME    = STARLINK-36694
OBJECT_ID      = 2026-022F
CENTER_NAME    = EARTH
REF_FRAME      = TEME
TIME_SYSTEM    = UTC
MEAN_ELEMENT_THEORY = SGP/SGP4

EPOCH          = 2026-02-08T06:00:02.000160
MEAN_MOTION    = 16.00527754
ECCENTRICITY   = .0000984
INCLINATION    = 97.2827
RA_OF_ASC_NODE = 71.6262
ARG_OF_PERICENTER = 83.5531
MEAN_ANOMALY   = 317.8907

EPHEMERIS_TYPE = 0
CLASSIFICATION_TYPE = U
NORAD_CAT_ID   = 67653
ELEMENT_SET_NO = 999
REV_AT_EPOCH   = 216
BSTAR          = -.31228948E-2
MEAN_MOTION_DOT = -.1617319E-1
MEAN_MOTION_DDOT = .80353086E-3

CCSDS_OMM_VERS = 2.0
CREATION_DATE  = 
ORIGINATOR     = 

OBJECT_NAME    = STARLINK-36620
OBJECT_ID      = 2026-022G
CENTER_NAME    = EARTH
REF_FRAME      = TEME
TIME_SYSTEM    = UTC
MEAN_ELEMENT_THEORY = SGP/SGP4

EPOCH          = 2026-02-08T06:00:02.000160
MEAN_MOTION    = 16.00687623
ECCENTRICITY   = .00010496
INCLINATION    = 97.2824
RA_OF_ASC_NODE = 71.6267
ARG_OF_PERICENTER = 63.3596
MEAN_ANOMALY   = 339.8792

EPHEMERIS_TYPE = 0
CLASSIFICATION_TYPE = U
NORAD_CAT_ID   = 67654
ELEMENT_SET_NO = 999
REV_AT_EPOCH   = 216
BSTAR          = -.3082847E-2
MEAN_MOTION_DOT = -.1611259E-1
MEAN_MOTION_DDOT = .7993908E-3

CCSDS_OMM_VERS = 2.0
CREATION_DATE  = 
ORIGINATOR     = 

OBJECT_NAME    = STARLINK-36720
OBJECT_ID      = 2026-022H
CENTER_NAME    = EARTH
REF_FRAME      = TEME
TIME_SYSTEM    = UTC
MEAN_ELEMENT_THEORY = SGP/SGP4

EPOCH          = 2026-02-08T06:00:02.000160
MEAN_MOTION    = 16.00878325
ECCENTRICITY   = .0000951
INCLINATION    = 97.2825
RA_OF_ASC_NODE = 71.6277
ARG_OF_PERICENTER = 84.3882
MEAN_ANOMALY   = 320.8909

EPHEMERIS_TYPE = 0
CLASSIFICATION_TYPE = U
NORAD_CAT_ID   = 67655
ELEMENT_SET_NO = 999
REV_AT_EPOCH   = 216
BSTAR          = -.30383738E-2
MEAN_MOTION_DOT = -.1605434E-1
MEAN_MOTION_DDOT = .79574625E-3

